[{"OBJECT_NAME":"FLOCK 4G-2","OBJECT_ID":"2025-009BE","EPOCH":"2026-03-09T15:53:23.273952","MEAN_MOTION":15.2767526,"ECCENTRICITY":0.00031811,"INCLINATION":97.4044,"RA_OF_ASC_NODE":151.2221,"ARG_OF_PERICENTER":329.2677,"MEAN_ANOMALY":30.8376,"EPHEMERIS_TYPE":0,"CLASSIFICATION_TYPE":"U","NORAD_CAT_ID":62661,"ELEMENT_SET_NO":999,"REV_AT_EPOCH":12132,"BSTAR":0.00051068481,"MEAN_MOTION_DOT":0.00013752,"MEAN_MOTION_DDOT":0},{"OBJECT_NAME":"STARLINK-35360","OBJECT_ID":"2025-259Y","EPOCH":"2026-03-09T22:34:38.995104","MEAN_MOTION":15.27603584,"ECCENTRICITY":0.0002299,"INCLINATION":43.005,"RA_OF_ASC_NODE":272.5823,"ARG_OF_PERICENTER":295.7841,"MEAN_ANOMALY":64.2773,"EPHEMERIS_TYPE":0,"CLASSIFICATION_TYPE":"U","NORAD_CAT_ID":66444,"ELEMENT_SET_NO":999,"REV_AT_EPOCH":1953,"BSTAR":0.00088901469,"MEAN_MOTION_DOT":0.000243,"MEAN_MOTION_DDOT":0}]
